[{"norad_id":"56711","company":"ONEWEB","tle_line2":"2 56711  87.9062 294.1266 0001438  96.8428 263.2866 13.16595474109320","launch_date":"2023-05-20","type":"LEO","tle_line1":"1 56711U 23068B   25205.22574329  .00000115  00000+0  26665-3 0  9991","satellite_name":"ONEWEB-0668"},{"norad_id":"56712","company":"ONEWEB","tle_line2":"2 56712  87.9051 294.2453 0002358 108.1725 251.9663 13.16595374108481","launch_date":"2023-05-20","type":"LEO","tle_line1":"1 56712U 23068C   25204.74998494 -.00000030  00000+0 -11190-3 0  9996","satellite_name":"ONEWEB-0676"},{"norad_id":"56713","company":"ONEWEB","tle_line2":"2 56713  87.9272 339.8306 0001848 106.8292 253.3044 13.20770896106472","launch_date":"2023-05-20","type":"LEO","tle_line1":"1 56713U 23068D   25204.93256331 -.00000041  00000+0 -13191-3 0  9990","satellite_name":"ONEWEB-0677"},{"norad_id":"56714","company":"ONEWEB","tle_line2":"2 56714  87.9085 324.6427 0002217  95.2986 264.8397 13.15549454106121","launch_date":"2023-05-20","type":"LEO","tle_line1":"1 56714U 23068E   25204.89656357 -.00000129  00000+0 -37786-3 0  9991","satellite_name":"ONEWEB-0678"},{"norad_id":"56715","company":"ONEWEB","tle_line2":"2 56715  87.9054 294.2284 0001721 114.1443 245.9868 13.16595120108519","launch_date":"2023-05-20","type":"LEO","tle_line1":"1 56715U 23068F   25204.79510206 -.00000037  00000+0 -12922-3 0  9996","satellite_name":"ONEWEB-0679"},{"norad_id":"56716","company":"ONEWEB","tle_line2":"2 56716  87.9266 309.4755 0001304 102.8189 257.3090 13.21825667107718","launch_date":"2023-05-20","type":"LEO","tle_line1":"1 56716U 23068G   25204.80196347  .00000007  00000+0 -15270-4 0  9991","satellite_name":"ONEWEB-0680"},{"norad_id":"56717","company":"ONEWEB","tle_line2":"2 56717  87.9248 309.4266 0002800 158.5417 201.5835 13.23042425108455","launch_date":"2023-05-20","type":"LEO","tle_line1":"1 56717U 23068H   25205.18250800  .00049904  00000+0  11798+0 0  9993","satellite_name":"ONEWEB-0681"},{"norad_id":"56718","company":"ONEWEB","tle_line2":"2 56718  87.9065 324.6812 0001393 105.3821 254.7463 13.15547085106283","launch_date":"2023-05-20","type":"LEO","tle_line1":"1 56718U 23068J   25204.84663949  .00000028  00000+0  40776-4 0  9995","satellite_name":"ONEWEB-0682"}]